     2.10           G: GLONASS NAV DATA                     RINEX VERSION / TYPE
teqc  2015Jun23                         20210525 02:25:48UTCPGM / RUN BY / DATE
Linux 2.4.21-27.ELsmp|Opteron|gcc -static|Linux x86_64|=+   COMMENT
  2021     5     1    1.443549990654D-08                    CORR TO SYSTEM TIME
                                                            END OF HEADER
 4 21  5  2 15 45  0.0 8.501019328833D-05 1.818989403546D-12 5.580000000000D+04
    1.410899804688D+04-1.050498962402D+00 2.793967723846D-09 0.000000000000D+00
    1.824507373047D+04-1.071334838867D+00 0.000000000000D+00 6.000000000000D+00
    1.093380517578D+04 3.152171134949D+00 9.313225746155D-10 0.000000000000D+00
13 21  5  2 15 45  0.0-5.422160029411D-05-0.000000000000D+00 5.580000000000D+04
   -2.363659667969D+04 1.012802124023D-03-9.313225746155D-10 0.000000000000D+00
    9.581155761719D+03 1.689157485962D-01-9.313225746155D-10-2.000000000000D+00
   -4.650283203125D+02 3.566890716553D+00-1.862645149231D-09 0.000000000000D+00
14 21  5  2 15 45  0.0 6.379652768373D-05 0.000000000000D+00 5.580000000000D+04
   -1.310567773438D+04-2.135504722595D+00-1.862645149231D-09 0.000000000000D+00
    1.380858496094D+04 9.248094558716D-01-9.313225746155D-10-7.000000000000D+00
   -1.697624121094D+04 2.398129463196D+00 0.000000000000D+00 0.000000000000D+00
18 21  5  2 15 45  0.0 7.511768490076D-05 9.094947017729D-13 5.580000000000D+04
    1.096926269531D+03-4.926013946533D-02 1.862645149231D-09 0.000000000000D+00
    2.293838378906D+04 1.543503761292D+00-0.000000000000D+00-3.000000000000D+00
    1.117788671875D+04-3.160100936890D+00-0.000000000000D+00 0.000000000000D+00
24 21  5  2 15 45  0.0 4.109553992748D-05 9.094947017729D-13 5.580000000000D+04
   -1.148527685547D+04 5.854129791260D-01-2.793967723846D-09 0.000000000000D+00
    1.154419824219D+04-2.627840995789D+00-9.313225746155D-10 2.000000000000D+00
   -1.961808447266D+04-1.888338088989D+00 0.000000000000D+00 0.000000000000D+00
15 21  5  2 15 45  0.0 1.040427014232D-04-9.094947017729D-13 5.742000000000D+04
    4.790165527344D+03-2.948073387146D+00-9.313225746155D-10 0.000000000000D+00
    9.925167480469D+03 1.114933013916D+00-0.000000000000D+00 0.000000000000D+00
   -2.298721875000D+04-1.328144073486D-01 1.862645149231D-09 0.000000000000D+00
17 21  5  2 16 15  0.0 4.206746816635D-04 2.728484105319D-12 5.760000000000D+04
   -6.071010742188D+03 2.498960494995D-01-9.313225746155D-10 0.000000000000D+00
    2.184884228516D+04-1.590431213379D+00-0.000000000000D+00 4.000000000000D+00
   -1.164437060547D+04-3.115888595581D+00 0.000000000000D+00 0.000000000000D+00
 4 21  5  2 16 15  0.0 8.501391857862D-05 1.818989403546D-12 5.760000000000D+04
    1.154000488281D+04-1.798350334167D+00 2.793967723846D-09 0.000000000000D+00
    1.609392773438D+04-1.273843765259D+00-0.000000000000D+00 6.000000000000D+00
    1.611276904297D+04 2.565032005310D+00-0.000000000000D+00 0.000000000000D+00
13 21  5  2 16 15  0.0-5.422253161669D-05-0.000000000000D+00 5.760000000000D+04
   -2.291221679688D+04 7.810125350952D-01-9.313225746155D-10 0.000000000000D+00
    9.529202636719D+03-2.606201171875D-01-0.000000000000D+00-2.000000000000D+00
    5.890372558594D+03 3.448784828186D+00-2.793967723846D-09 0.000000000000D+00
14 21  5  2 16 15  0.0 6.379745900631D-05 0.000000000000D+00 5.760000000000D+04
   -1.629582763672D+04-1.392424583435D+00-1.862645149231D-09 0.000000000000D+00
    1.548607080078D+04 8.970499038696D-01-9.313225746155D-10-7.000000000000D+00
   -1.205911914062D+04 3.029837608337D+00-9.313225746155D-10 0.000000000000D+00
15 21  5  2 16 15  0.0 1.040417701006D-04-9.094947017729D-13 5.760000000000D+04
   -3.133281250000D+02-2.677416801453D+00-1.862645149231D-09 0.000000000000D+00
    1.228917968750D+04 1.486555099487D+00-0.000000000000D+00 0.000000000000D+00
   -2.233309960938D+04 8.548803329468D-01 1.862645149231D-09 0.000000000000D+00
18 21  5  2 16 15  0.0 7.512141019106D-05 9.094947017729D-13 5.760000000000D+04
    1.276457519531D+03 2.111759185791D-01 9.313225746155D-10 0.000000000000D+00
    2.498763574219D+04 7.105493545532D-01-0.000000000000D+00-3.000000000000D+00
    5.132399414062D+03-3.513650894165D+00-0.000000000000D+00 0.000000000000D+00
24 21  5  2 16 15  0.0 4.109740257263D-05 9.094947017729D-13 5.760000000000D+04
   -1.075084082031D+04 2.084197998047D-01-3.725290298462D-09 0.000000000000D+00
    6.402611328125D+03-3.039535522461D+00-0.000000000000D+00 2.000000000000D+00
   -2.221372363281D+04-9.769573211670D-01 0.000000000000D+00 0.000000000000D+00
 3 21  5  2 16 15  0.0 3.523752093315D-05 9.094947017729D-13 5.763000000000D+04
   -4.970750000000D+03-2.667130470276D+00 1.862645149231D-09 0.000000000000D+00
    9.832861816406D+03-1.662581443787D+00-0.000000000000D+00 5.000000000000D+00
    2.305535742188D+04 1.297340393066D-01-1.862645149231D-09 0.000000000000D+00
19 21  5  2 16 15  0.0-1.421160995960D-04-9.094947017729D-13 5.931000000000D+04
    7.292239746094D+03-1.608848571777D-02 2.793967723846D-09 0.000000000000D+00
    1.571667333984D+04 2.573083877563D+00-0.000000000000D+00 3.000000000000D+00
    1.871854736328D+04-2.153388977051D+00-0.000000000000D+00 0.000000000000D+00
17 21  5  2 16 45  0.0 4.206802695990D-04 2.728484105319D-12 5.940000000000D+04
   -5.875823730469D+03-6.528091430664D-02-1.862645149231D-09 0.000000000000D+00
    1.831704833984D+04-2.300003051758D+00-0.000000000000D+00 4.000000000000D+00
   -1.672934570312D+04-2.497360229492D+00 0.000000000000D+00 0.000000000000D+00
 4 21  5  2 16 45  0.0 8.501764386892D-05 1.818989403546D-12 5.940000000000D+04
    7.689314941406D+03-2.455933570862D+00 2.793967723846D-09 0.000000000000D+00
    1.381795019531D+04-1.213345527649D+00-0.000000000000D+00 6.000000000000D+00
    2.004922851562D+04 1.780577659607D+00-0.000000000000D+00 0.000000000000D+00
13 21  5  2 16 45  0.0-5.422346293926D-05-0.000000000000D+00 5.940000000000D+04
   -2.093496337891D+04 1.378727912903D+00-0.000000000000D+00 0.000000000000D+00
    8.542507324219D+03-8.564186096191D-01-0.000000000000D+00-2.000000000000D+00
    1.179002343750D+04 3.063754081726D+00-2.793967723846D-09 0.000000000000D+00
14 21  5  2 16 45  0.0 6.379839032888D-05 0.000000000000D+00 5.940000000000D+04
   -1.809250781250D+04-6.062841415405D-01-1.862645149231D-09 0.000000000000D+00
    1.688340869141D+04 6.132240295410D-01-0.000000000000D+00-7.000000000000D+00
   -6.209802246094D+03 3.427197456360D+00-1.862645149231D-09 0.000000000000D+00
15 21  5  2 16 45  0.0 1.040408387780D-04-0.000000000000D+00 5.940000000000D+04
   -4.706652832031D+03-2.171463966370D+00-1.862645149231D-09 0.000000000000D+00
    1.516046582031D+04 1.665396690369D+00-0.000000000000D+00 0.000000000000D+00
   -1.994951513672D+04 1.776304244995D+00 0.000000000000D+00 0.000000000000D+00
18 21  5  2 16 45  0.0 7.512420415878D-05 9.094947017729D-13 5.940000000000D+04
    1.710333007812D+03 2.284221649170D-01 0.000000000000D+00 0.000000000000D+00
    2.544831054688D+04-2.020673751831D-01-0.000000000000D+00-3.000000000000D+00
   -1.308447265625D+03-3.596545219421D+00 0.000000000000D+00 0.000000000000D+00
19 21  5  2 16 45  0.0-1.421188935637D-04-9.094947017729D-13 5.940000000000D+04
    7.602457031250D+03 3.306655883789D-01 1.862645149231D-09 0.000000000000D+00
    1.980095898438D+04 1.926831245422D+00-0.000000000000D+00 3.000000000000D+00
    1.416880761719D+04-2.869045257568D+00-0.000000000000D+00 0.000000000000D+00
17 21  5  2 17 15  0.0 4.206858575344D-04 2.728484105319D-12 6.120000000000D+04
   -6.397432128906D+03-5.318355560303D-01-2.793967723846D-09 0.000000000000D+00
    1.371553662109D+04-2.766342163086D+00 0.000000000000D+00 4.000000000000D+00
   -2.051868212891D+04-1.685694694519D+00 0.000000000000D+00 0.000000000000D+00
14 21  5  2 17 15  0.0 6.379932165146D-05 0.000000000000D+00 6.120000000000D+04
   -1.852045507812D+04 1.103668212891D-01-1.862645149231D-09 0.000000000000D+00
    1.755161474609D+04 9.405231475830D-02-0.000000000000D+00-7.000000000000D+00
    1.194223632812D+02 3.559632301331D+00-2.793967723846D-09 0.000000000000D+00
 4 21  5  2 17 15  0.0 8.502136915922D-05 1.818989403546D-12 6.120000000000D+04
    2.815402832031D+03-2.919855117798D+00 1.862645149231D-09 0.000000000000D+00
    1.185959863281D+04-9.312467575073D-01-0.000000000000D+00 6.000000000000D+00
    2.244055126953D+04 8.593101501465D-01-9.313225746155D-10 0.000000000000D+00
15 21  5  2 17 15  0.0 1.040399074554D-04-0.000000000000D+00 6.120000000000D+04
   -8.042869628906D+03-1.519959449768D+00-2.793967723846D-09 0.000000000000D+00
    1.813145166016D+04 1.590400695801D+00-0.000000000000D+00 0.000000000000D+00
   -1.602123046875D+04 2.560047149658D+00-0.000000000000D+00 0.000000000000D+00
18 21  5  2 17 15  0.0 7.512699812651D-05 9.094947017729D-13 6.120000000000D+04
    1.948161621094D+03-3.797531127930D-03-0.000000000000D+00 0.000000000000D+00
    2.428443896484D+04-1.074501037598D+00-0.000000000000D+00-3.000000000000D+00
   -7.648443359375D+03-3.402284622192D+00 0.000000000000D+00 0.000000000000D+00
19 21  5  2 17 15  0.0-1.421216875315D-04-9.094947017729D-13 6.120000000000D+04
    8.353171386719D+03 4.629755020142D-01 9.313225746155D-10 0.000000000000D+00
    2.254468994141D+04 1.100532531738D+00-0.000000000000D+00 3.000000000000D+00
    8.523447753906D+03-3.362838745117D+00-0.000000000000D+00 0.000000000000D+00
13 21  5  2 17 15  0.0-5.422439426184D-05-0.000000000000D+00 6.123000000000D+04
   -1.809982910156D+04 1.726155281067D+00 0.000000000000D+00 0.000000000000D+00
    6.401994140625D+03-1.525146484375D+00-0.000000000000D+00-2.000000000000D+00
    1.677712841797D+04 2.441414833069D+00-2.793967723846D-09 0.000000000000D+00
17 21  5  2 17 45  0.0 4.206905141473D-04 2.728484105319D-12 6.300000000000D+04
   -7.821628417969D+03-1.049994468689D+00-2.793967723846D-09 0.000000000000D+00
    8.538107910156D+03-2.934430122375D+00 9.313225746155D-10 4.000000000000D+00
   -2.271960693359D+04-7.439651489258D-01 0.000000000000D+00 0.000000000000D+00
